GALAXY 25 (G-25)        
1 24812U 97026A   22335.46709706 -.00000002  00000+0  00000+0 0  9996
2 24812   4.1050  81.9524 0006686 198.2934  24.3259  1.00272048 93405
INTELSAT 5 (IS-5)       
1 24916U 97046A   22335.59354434 -.00000061  00000+0  00000+0 0  9996
2 24916   7.5839  59.8730 0005975 187.1121 203.2822  1.00274274 92653
GALAXY 11 (G-11)        
1 26038U 99071A   22335.30202632 -.00000160  00000+0  00000+0 0  9994
2 26038   3.4427  85.5178 0001941 214.3595 145.9018  1.00270473 84115
INTELSAT 9 (IS-9)       
1 26451U 00043A   22335.33654551 -.00000287  00000+0  00000+0 0  9998
2 26451   7.5697  60.0628 0003957 187.2870 253.9893  1.00270788 31177
INTELSAT 1R (IS-1R)     
1 26608U 00072A   22334.52333850 -.00000137  00000+0  00000+0 0  9994
2 26608   4.8157  79.1076 0000458 262.8587  72.9208  1.00272243 28339
INTELSAT 10 (IS-10)     
1 26766U 01019A   22335.56106087  .00000035  00000+0  00000+0 0  9992
2 26766   5.9748  71.9212 0004087 179.3752 198.8742  1.00272122 32659
INTELSAT 901 (IS-901)   
1 26824U 01024A   22335.16151126 -.00000201  00000+0  00000+0 0  9999
2 26824   0.0468  91.7954 0000755 228.1871 140.6755  1.00270364 10016
INTELSAT 902 (IS-902)   
1 26900U 01039A   22335.51564794 -.00000280  00000+0  00000+0 0  9995
2 26900   2.8246  87.1272 0003476 178.0465 300.7236  1.00272332 77723
INTELSAT 904 (IS-904)   
1 27380U 02007A   22335.20412598 -.00000212  00000+0  00000+0 0  9999
2 27380   3.6547  84.1429 0002932 167.1157 222.7776  1.00271547 38796
DIRECTV 5 (TEMPO 1)     
1 27426U 02023A   22335.57075170 -.00000053  00000+0  00000+0 0  9992
2 27426   1.5521  91.1785 0003233 160.2509 274.3411  1.00271318 75155
INTELSAT 905 (IS-905)   
1 27438U 02027A   22335.44905392 -.00000182  00000+0  00000+0 0  9996
2 27438   3.4777  84.8590 0002683 157.9646 324.6434  1.00271394 38391
GALAXY 3C (G-3C)        
1 27445U 02030A   22335.50675711 -.00000150  00000+0  00000+0 0  9999
2 27445   0.4044  91.5822 0001316 220.7151 205.6300  1.00270884 33521
INTELSAT 906 (IS-906)   
1 27513U 02041A   22335.53848515  .00000016  00000+0  00000+0 0  9994
2 27513   2.4941  88.5412 0004496 166.2594  73.5713  1.00272026 74056
GALAXY 12 (G-12)        
1 27715U 03013B   22335.42136865  .00000060  00000+0  00000+0 0  9993
2 27715   3.6882  83.7974 0001789 167.4410 201.7199  1.00270917 39128
GALAXY 23 (G-23)        
1 27854U 03034A   22335.55716493  .00000015  00000+0  00000+0 0  9995
2 27854   0.0104 303.6747 0002955 306.0921 260.2405  1.00272210 70770
GALAXY 13 (HORIZONS-1)  
1 27954U 03044A   22335.55041737  .00000050  00000+0  00000+0 0  9998
2 27954   0.0088  85.6277 0001544  98.1794 317.7084  1.00269648 33600
INTELSAT 10-02          
1 28358U 04022A   22335.16639250 -.00000009  00000+0  00000+0 0  9999
2 28358   0.0321  86.6275 0001111 200.6138 201.6800  1.00272887 67579
XM-3 (RHYTHM)           
1 28626U 05008A   22335.30728850 -.00000203  00000+0  00000+0 0  9999
2 28626   0.0494 136.1146 0001526  52.7283 266.8274  1.00267994 29640
DIRECTV 8               
1 28659U 05019A   22335.56053912  .00000003  00000+0  00000+0 0  9992
2 28659   0.0198  60.8899 0002722 181.1020 271.1592  1.00271157 64108
GALAXY 28 (G-28)        
1 28702U 05022A   22335.50789025 -.00000183  00000+0  00000+0 0  9990
2 28702   0.0443  73.8709 0002710 203.4685 246.8557  1.00271592 39011
GALAXY 14 (G-14)        
1 28790U 05030A   22335.53220928  .00000158  00000+0  00000+0 0  9992
2 28790   1.6848  90.3730 0002004 153.3029  51.2023  1.00273677 63337
GALAXY 15 (G-15)        
1 28884U 05041A   22335.55199802  .00000037  00000+0  00000+0 0  9992
2 28884   0.2370  92.3208 0004246 175.5488 235.7595  1.00307268 62643
SPACEWAY 2              
1 28903U 05046B   22335.43524149  .00000106  00000+0  00000+0 0  9999
2 28903   2.2866  86.2965 0001274 196.2388 165.5512  1.00271767 38372
GALAXY 16 (G-16)        
1 29236U 06023A   22335.58593149 -.00000125  00000+0  00000+0 0  9999
2 29236   0.0398 126.4336 0002656 124.0083 291.9136  1.00271901 60004
DIRECTV 9S              
1 29494U 06043A   22335.58232753 -.00000111  00000+0  00000+0 0  9993
2 29494   0.0133 348.7073 0003064 264.1344 286.0242  1.00271611 38415
XM-4 (BLUES)            
1 29520U 06049A   22335.50867473 -.00000204  00000+0  00000+0 0  9997
2 29520   0.0173 295.3482 0001761  24.9150 208.0975  1.00273198 38508
GALAXY 17 (G-17)        
1 31307U 07016B   22335.50754160 -.00000172  00000+0  00000+0 0  9990
2 31307   0.0184  14.3149 0002873 250.1306 257.6287  1.00270581 56831
DIRECTV 10              
1 31862U 07032A   22335.43585656 -.00000102  00000+0  00000+0 0  9991
2 31862   0.0132  92.9803 0000555 111.0482 280.3733  1.00276184 32629
SPACEWAY 3              
1 32018U 07036A   22335.00461438 -.00000150  00000+0  00000+0 0  9996
2 32018   0.6549  91.0613 0000490   0.3079 245.1963  1.00270775 33579
INTELSAT 11 (IS-11)     
1 32253U 07044B   22335.44530582 -.00000266  00000+0  00000+0 0  9999
2 32253   0.2123  93.9669 0002884 176.2050 277.4237  1.00272318 55523
HORIZONS-2              
1 32388U 07063B   22335.31789738 -.00000251  00000+0  00000+0 0  9998
2 32388   0.0165   3.1235 0002124 253.3825 214.2974  1.00269799 54842
DIRECTV 11              
1 32729U 08013A   22335.58593149 -.00000124  00000+0  00000+0 0  9990
2 32729   0.0440 124.9125 0000744 100.2126 317.0599  1.00273552 32626
GALAXY 18 (G-18)        
1 32951U 08024A   22335.42444198  .00000027  00000+0  00000+0 0  9992
2 32951   0.0262  74.9840 0002780 172.1754 212.9096  1.00272973 32889
INTELSAT 25 (IS-25)     
1 33153U 08034A   22335.44765928 -.00000222  00000+0  00000+0 0  9995
2 33153   0.0119 299.2898 0002943 311.0611 309.6013  1.00271623 52726
GALAXY 19 (G-19)        
1 33376U 08045A   22335.58747404 -.00000137  00000+0  00000+0 0  9993
2 33376   0.0364 104.9304 0002584 147.0366 292.9541  1.00272560 51937
FM-5                    
1 35493U 09034A   22335.50850041 -.00000199  00000+0  00000+0 0  9996
2 35493   0.0177 337.9893 0000332 233.4478 315.8350  1.00275344 33672
INTELSAT 14 (IS-14)     
1 36097U 09064A   22335.44495716 -.00000272  00000+0  00000+0 0  9999
2 36097   0.0167 359.6745 0002428 242.2169 303.5908  1.00271966 47632
INTELSAT 15 (IS-15)     
1 36106U 09067A   22335.54266906 -.00000184  00000+0  00000+0 0  9993
2 36106   0.0176 319.9941 0002400 298.2311  92.6734  1.00270463 28251
DIRECTV 12              
1 36131U 09075A   22335.58074985 -.00000102  00000+0  00000+0 0  9998
2 36131   0.0417 141.8184 0000243  58.8910 336.0836  1.00274589 33590
INTELSAT 16 (IS-16)     
1 36397U 10006A   22335.51041804 -.00000243  00000+0  00000+0 0  9991
2 36397   0.0168 313.3432 0001958 288.2029 296.3526  1.00272158 46681
XM-5                    
1 37185U 10053A   22335.42985304 -.00000021  00000+0  00000+0 0  9995
2 37185   0.0172 347.9950 0000479 149.4845 332.3470  1.00271094 44518
INTELSAT 17 (IS-17)     
1 37238U 10065B   22335.53883382  .00000000  00000+0  00000+0 0  9998
2 37238   0.0184 276.2597 0002464 335.7870  78.3254  1.00271117 40266
INTELSAT NEW DAWN       
1 37392U 11016A   22335.53220928  .00000157  00000+0  00000+0 0  9990
2 37392   0.0132 141.4994 0001195  99.3119  53.9614  1.00271960 40314
INTELSAT 18 (IS-18)     
1 37834U 11056A   22335.05935396  .00000055  00000+0  00000+0 0  9991
2 37834   0.0247 357.1453 0002109 247.6074  26.5452  1.00274003 40836
INTELSAT 22 (IS-22)     
1 38098U 12011A   22335.10964812 -.00000058  00000+0  00000+0 0  9991
2 38098   0.0148 318.5309 0002845 287.2161 295.7965  1.00273070 38844
INTELSAT 19 (IS-19)     
1 38356U 12030A   22335.59385619 -.00000054  00000+0  00000+0 0  9990
2 38356   0.0135 328.8570 0003168 284.6935 196.6829  1.00271681 37472
INTELSAT 20 (IS-20)     
1 38740U 12043A   22335.18060039 -.00000023  00000+0  00000+0 0  9998
2 38740   0.0064 103.2460 0003435  89.2281  11.0784  1.00270297 37778
INTELSAT 21 (IS-21)     
1 38749U 12045A   22335.13971758 -.00000283  00000+0  00000+0 0  9991
2 38749   0.0122  26.7335 0002300 218.8750 176.6715  1.00269170 37559
INTELSAT 23 (IS-23)     
1 38867U 12057A   22335.20323253 -.00000283  00000+0  00000+0 0  9994
2 38867   0.0196 313.0534 0000958  26.7879 110.3852  1.00273073 36978
FM-6                    
1 39360U 13058A   22335.36631367 -.00000015  00000+0  00000+0 0  9993
2 39360   0.0171 312.2407 0000203 227.8891 265.7955  1.00272535 33092
INTELSAT 30 (IS-30)     
1 40271U 14062A   22335.44039788 -.00000149  00000+0  00000+0 0  9998
2 40271   0.0174 326.2708 0002220 139.1144  28.3830  1.00270771 29612
DIRECTV 14              
1 40333U 14078B   22335.43813115 -.00000123  00000+0  00000+0 0  9999
2 40333   0.0417  90.2094 0000107 285.0710 113.4895  1.00269985 29093
DIRECTV 15              
1 40663U 15026A   22335.43585642 -.00000100  00000+0  00000+0 0  9995
2 40663   0.0258  73.2114 0000277  71.4824 339.6217  1.00267922 27498
SKY MEXICO-1            
1 40664U 15026B   22335.50998221 -.00000233  00000+0  00000+0 0  9992
2 40664   0.0123   5.9380 0002107 244.4300 284.8130  1.00272601 27486
INTELSAT 34 (IS-34)     
1 40874U 15039A   22335.51460196 -.00000283  00000+0  00000+0 0  9990
2 40874   0.0177 313.9213 0000710 210.2189  35.9837  1.00268994 26656
INTELSAT 31 (IS-31)     
1 41581U 16035A   22335.50666994 -.00000148  00000+0  00000+0 0  9996
2 41581   0.0166 264.1559 0002059 295.1925 318.3414  1.00268571 23723
INTELSAT 36 (IS-36)     
1 41747U 16053A   22335.53926963 -.00000023  00000+0  00000+0 0  9990
2 41747   0.0117 355.8765 0001124  18.1344 319.0018  1.00270837 22972
INTELSAT 33E (IS-33E)   
1 41748U 16053B   22335.53761351  .00000051  00000+0  00000+0 0  9999
2 41748   0.0271  64.7064 0001584 183.7548  75.4625  1.00270100 23271
INTELSAT 32E (IS-32E)   
1 41945U 17007B   22335.29285707 -.00000267  00000+0  00000+0 0  9997
2 41945   0.0161   7.5466 0000298 121.6094   3.2230  1.00268682 21267
INTELSAT 35E (IS-35E)   
1 42818U 17041A   22335.40882587 -.00000236  00000+0  00000+0 0  9993
2 42818   0.0175 307.1989 0001674 295.6647 300.0712  1.00272591 19844
INTELSAT 37E (IS-37E)   
1 42950U 17059A   22335.45466043 -.00000139  00000+0  00000+0 0  9991
2 42950   0.0172 357.2209 0002828 244.6004 334.1411  1.00269690 19099
AZERSPACE 2 (IS-38)     
1 43632U 18074A   22335.53464990  .00000138  00000+0  00000+0 0  9993
2 43632   0.0147 359.7325 0001383 253.8819  54.3595  1.00271937 15475
HORIZONS-3E             
1 43633U 18074B   22335.59901635 -.00000029  00000+0  00000+0 0  9992
2 43633   0.0428 126.8064 0001231 168.1427 160.1284  1.00268231 15379
AT&T T-16               
1 44333U 19034A   22335.43737806 -.00000114  00000+0  00000+0 0  9992
2 44333   0.0487 104.0726 0000406 170.0563 212.7338  1.00274212 12660
INTELSAT 39 (IS-39)     
1 44476U 19049B   22335.39457583  .00000035  00000+0  00000+0 0  9993
2 44476   0.0189 313.0816 0000868 182.9936 138.1537  1.00270529 12161
GALAXY 30 (G-30)        
1 46114U 20056C   22335.55378698  .00000039  00000+0  00000+0 0  9995
2 46114   0.0161 312.9517 0002006 283.7215 268.0805  1.00272243  8323
GALAXY 33               
1 54026U 22128A   22335.54367785  .00000081  00000+0  00000+0 0  9999
2 54026   0.0385  97.5140 0002113 151.6478 243.9472  1.00271826   783
GALAXY 34               
1 54027U 22128B   22335.18986680  .00000072  00000+0  00000+0 0  9991
2 54027   0.0152 338.8842 0001369 323.8848  57.2178  1.00575534   942
2022-153A               
1 54243U 22153A   22335.42719979  .00000133  00000+0  00000+0 0  9999
2 54243   0.0159 188.7759 0001353 122.0033 124.3117  1.00273036   161
2022-153B               
1 54244U 22153B   22335.52179010  .00000133  00000+0  00000+0 0  9997
2 54244   0.0391   6.6086 0001989 265.5199 197.0463  1.00272045   184
